#aV2020  6 15  0  0  0.00000000     288 DD+AD WGS84 FIT  NGA
## 2110  86400.00000000   300.00000000 59015 0.0000000000000
+   32     1  2  3  4  5  6  7  8  9 10 11 12 13 14 15 16 17
+         18 19 20 21 22 23 24 25 26 27 28 29 30 31 32  0  0
+          0  0  0  0  0  0  0  0  0  0  0  0  0  0  0  0  0
+          0  0  0  0  0  0  0  0  0  0  0  0  0  0  0  0  0
+          0  0  0  0  0  0  0  0  0  0  0  0  0  0  0  0  0
++         2  2  2  2  2  2  2  2  2  2  2  2  2  2  2  2  2
++         2  2  2  2  2  2  2  2  2  2  2  2  2  2  2  0  0
++         0  0  0  0  0  0  0  0  0  0  0  0  0  0  0  0  0
++         0  0  0  0  0  0  0  0  0  0  0  0  0  0  0  0  0
++         0  0  0  0  0  0  0  0  0  0  0  0  0  0  0  0  0
%c cc cc ccc ccc cccc cccc cccc cccc ccccc ccccc ccccc ccccc
%c cc cc ccc ccc cccc cccc cccc cccc ccccc ccccc ccccc ccccc
%f  0.0000000  0.000000000  0.00000000000  0.000000000000000
%f  0.0000000  0.000000000  0.00000000000  0.000000000000000
%i    0    0    0    0      0      0      0      0         0
%i    0    0    0    0      0      0      0      0         0
/*      NGA, ST. LOUIS,MO.                                  
/*   EPHEMERIS COMPUTED FROM 2 DAYS OF DATA                 
/*   EPOCHA v5 SMOOTHER                                     
/*   G1762 IERS2010 SATAF SATAPC                            
*  2020  6 15  4  5  0.00000000
P  1 -13648.455707  10829.225868  19714.773365      8.868079                    
V  1   -149.551650 -25610.521586  14133.122633      0.096723                    
P  2  13361.823948  12879.304796 -18384.448092   -472.312112                    
V  2   -701.338966  24706.908842  16194.770641     -0.059470                    
P  3 -23555.696439  12125.271188    590.422988   -209.251820                    
V  3   -568.703103  -2816.868099  31926.307511     -0.122123                    
P  4 -16733.173116   5562.503468 -19859.225320   -102.615385                    
V  4 -20354.520947 -14967.424145  12917.640653     -0.048245                    
P  5  20224.429743   2515.177592 -17274.953465    -14.674139                    
V  5 -17871.186402  12275.851276 -19094.050998     -0.007703                    
P  6   7070.592247  22760.157476 -11622.033348   -288.838123                    
V  6  -2389.152669  14755.587966  27364.243838     -0.059705                    
P  7  -5782.456830  24706.610164  -6617.928090   -304.751170                    
V  7  -2982.667248  -9074.069612 -30361.326027     -0.087590                    
P  8 -23237.941193  -3939.180433  12506.821962    -37.590754                    
V  8 -12523.608995  -9742.021058 -26109.325169     -0.013192                    
P  9  -5756.365398  14450.852467 -21576.118478   -236.502017                    
V  9 -23574.356773 -13798.178706  -2975.380982     -0.068779                    
P 10     69.547228 -16444.608565  20895.182465   -371.662290                    
V 10  23639.759464 -11716.258701  -9570.973542     -0.111213                    
P 11 -16575.317567   1329.582433  20173.455897   -248.421603                    
V 11 -10316.348585 -24957.880514  -6989.907155      0.106705                    
P 12  24275.052118 -10545.145237    445.605976    105.935315                    
V 12    203.735801   2541.841909  32232.497919     -0.044685                    
P 13  22533.085707  12413.043892   6686.822079     18.427584                    
V 13   5147.455223   7324.270620 -30313.881858      0.031943                    
P 14 -17107.277632 -19158.245595   7485.328086     -5.794776                    
V 14   8692.092206   3366.928768  29709.219644      0.027402                    
P 15  23568.214034   1217.520880  12231.441706   -224.180713                    
V 15  13082.257441   9615.286049 -25128.260198      0.025921                    
P 16 -21442.582443  -2561.130336 -15975.279781   -170.614986                    
V 16  17619.744081  -8826.898283 -22111.270182     -0.046676                    
P 17  10079.432869  19566.396909  15320.545305    280.959132                    
V 17 -16026.408248  -9618.049816  23433.307261      0.058329                    
P 18   6332.942072 -24794.851798  -7076.874944    220.441664                    
V 18   2067.650514   9106.902875 -30125.220193      0.106726                    
P 19  16409.835681  19282.807404   7772.499900   -145.040212                    
V 19  -9357.374875  -4661.804987  30123.493893      0.050741                    
P 20  10656.995890 -20034.852794  13540.077841    527.509946                    
V 20  15927.016563  -7797.573331 -24157.542957     -0.000915                    
P 21  -2701.610252 -26533.066087   2515.489760     11.734571                    
V 21   2654.582886  -2356.876962 -31197.014737      0.047483                    
P 22 -23817.522960   7451.086542   9095.656978   -777.893862                    
V 22   7616.097172  -9106.067382  28197.290899      0.019634                    
P 23   2765.714928  17710.801156 -19109.537263   -105.669664                    
V 23 -22652.760354 -11279.687664 -13849.815173      0.032492                    
P 24  14469.082371  -9154.936368  20018.334933    -14.329450                    
V 24   2166.365406  25990.860343  10584.540217     -0.005143                    
P 25  18838.253733 -16642.920510  -8399.267342     13.196416                    
V 25  10416.242054  -2586.725198  29570.286483      0.036761                    
P 26 -11751.451604 -10875.830321 -21251.782441    225.599604                    
V 26  23053.607537 -13922.245264  -5410.937689      0.070043                    
P 27 -23489.268623 -12483.893056   2625.026646   -320.857186                    
V 27  -1901.925259  -3521.338864 -31678.115027     -0.098915                    
P 28    124.860063  15938.980481  21851.839705    708.525946                    
V 28 -24388.098380   9868.951649  -7112.273132     -0.033909                    
P 29  10112.499644 -10779.494402 -22113.077319   -128.145836                    
V 29  22540.776323  16436.003956   2272.650600     -0.086309                    
P 30   1111.924820  26140.760496   3868.873006   -241.929796                    
V 30  -3962.849461   4654.940316 -30877.698470     -0.079828                    
P 31  -7929.590534 -21503.127197 -13061.871716    -49.205696                    
V 31   3624.840540 -16519.654818  25519.303634     -0.025223                    
P 32 -11997.893529 -19100.538566  14227.240221    300.188816                    
V 32  16350.291882   7520.086344  23881.731286      0.068994                    
EOF
